     2              NAVIGATION DATA                         RINEX VERSION / TYPE
CCRINEXN V1.6.0 UX  CDDIS               28-SEP-22 23:31     PGM / RUN BY / DATE 
IGS BROADCAST EPHEMERIS FILE                                COMMENT             
    0.2049D-07  0.1490D-07 -0.1192D-06 -0.1192D-06          ION ALPHA           
    0.1249D+06  0.1638D+05 -0.2621D+06  0.2621D+06          ION BETA            
    0.000000000000D+00-0.799360577730D-14   405504     2229 DELTA-UTC: A0,A1,T,W
    18                                                      LEAP SECONDS        
                                                            END OF HEADER       
29 22  9 27  6  0  0.0-0.554968137294D-03-0.318323145621D-11 0.000000000000D+00
    0.210000000000D+02-0.996250000000D+02 0.432875173846D-08 0.168208053142D+01
   -0.514090061188D-05 0.220867851749D-02 0.728853046894D-05 0.515364103317D+04
    0.194400000000D+06 0.465661287308D-07-0.618968575669D+00-0.428408384323D-07
    0.979546110553D+00 0.245656250000D+03 0.246251407604D+01-0.807855078978D-08
   -0.559309011751D-09 0.100000000000D+01 0.222900000000D+04 0.000000000000D+00
    0.200000000000D+01 0.000000000000D+00-0.102445483208D-07 0.210000000000D+02
    0.187218000000D+06 0.400000000000D+01 0.000000000000D+00 0.000000000000D+00
30 22  9 27  6  0  0.0-0.537160318345D-03-0.113686837722D-12 0.000000000000D+00
    0.730000000000D+02 0.559687500000D+02 0.471662503779D-08-0.120549581648D+01
    0.281073153019D-05 0.594180962071D-02 0.118874013424D-04 0.515371467018D+04
    0.194400000000D+06 0.149011611938D-06-0.277564223607D+01-0.428408384323D-07
    0.936219074997D+00 0.134125000000D+03-0.265568471346D+01-0.811426656320D-08
    0.205365697163D-09 0.100000000000D+01 0.222900000000D+04 0.000000000000D+00
    0.200000000000D+01 0.000000000000D+00 0.372529029846D-08 0.730000000000D+02
    0.187258000000D+06 0.400000000000D+01 0.000000000000D+00 0.000000000000D+00
31 22  9 27  6  0  0.0-0.194793567061D-03-0.136424205266D-11 0.000000000000D+00
    0.840000000000D+02 0.436875000000D+02 0.424839124826D-08-0.163109612035D+01
    0.195577740669D-05 0.105624191929D-01 0.127218663692D-04 0.515359850883D+04
    0.194400000000D+06 0.447034835815D-07-0.276641744185D+01-0.180676579475D-06
    0.955241066699D+00 0.125718750000D+03 0.431821797488D+00-0.781925427476D-08
    0.309655755548D-09 0.100000000000D+01 0.222900000000D+04 0.000000000000D+00
    0.200000000000D+01 0.000000000000D+00-0.135041773319D-07 0.840000000000D+02
    0.187218000000D+06 0.400000000000D+01 0.000000000000D+00 0.000000000000D+00
32 22  9 27  6  0  0.0-0.245574861765D-03-0.115960574476D-10 0.000000000000D+00
    0.900000000000D+01-0.734687500000D+02 0.462233539597D-08 0.249523264411D+01
   -0.377371907234D-05 0.610226322897D-02 0.724382698536D-05 0.515364789581D+04
    0.194400000000D+06 0.260770320892D-07 0.243867826901D+01-0.130385160446D-06
    0.958773592540D+00 0.236468750000D+03-0.229374430361D+01-0.816033991091D-08
   -0.497520723735D-09 0.100000000000D+01 0.222900000000D+04 0.000000000000D+00
    0.200000000000D+01 0.000000000000D+00 0.465661287308D-09 0.900000000000D+01
    0.187218000000D+06 0.400000000000D+01 0.000000000000D+00 0.000000000000D+00
 1 22  9 27  7 59 44.0 0.276962295175D-03-0.636646291241D-11 0.000000000000D+00
    0.400000000000D+01-0.368750000000D+01 0.383337396113D-08 0.578059639830D+00
   -0.111758708954D-07 0.119973846013D-01 0.126399099827D-04 0.515366162491D+04
    0.201584000000D+06-0.596046447754D-07 0.366659131110D+00 0.108033418655D-06
    0.988898892545D+00 0.151812500000D+03 0.943159137884D+00-0.778568144774D-08
    0.796461747257D-10 0.100000000000D+01 0.222900000000D+04 0.000000000000D+00
    0.200000000000D+01 0.000000000000D+00 0.512227416039D-08 0.400000000000D+01
    0.195199000000D+06 0.400000000000D+01 0.000000000000D+00 0.000000000000D+00
 5 22  9 27  7 59 44.0-0.982102937996D-04-0.136424205266D-11 0.000000000000D+00
    0.000000000000D+00 0.545937500000D+02 0.491520473801D-08 0.309040322772D+01
    0.282190740108D-05 0.609112018719D-02 0.451318919659D-05 0.515378368759D+04
    0.201584000000D+06 0.819563865662D-07 0.135598949818D+01-0.484287738800D-07
    0.962130208334D+00 0.292781250000D+03 0.111776259752D+01-0.830713173967D-08
    0.279297348141D-09 0.100000000000D+01 0.222900000000D+04 0.000000000000D+00
    0.200000000000D+01 0.000000000000D+00-0.111758708954D-07 0.000000000000D+00
    0.196302000000D+06 0.400000000000D+01 0.000000000000D+00 0.000000000000D+00
 9 22  9 27  7 59 44.0-0.290841795504D-03 0.488853402203D-11 0.000000000000D+00
    0.000000000000D+00-0.754375000000D+02 0.476519848964D-08-0.303265885947D+01
   -0.379420816898D-05 0.252402888145D-02 0.671297311783D-05 0.515375075340D+04
    0.201584000000D+06 0.186264514923D-08 0.242647586597D+01-0.577419996262D-07
    0.955012392122D+00 0.248968750000D+03 0.190463776250D+01-0.821677083292D-08
   -0.573238163385D-09 0.100000000000D+01 0.222900000000D+04 0.000000000000D+00
    0.200000000000D+01 0.000000000000D+00 0.139698386192D-08 0.000000000000D+00
    0.199398000000D+06 0.400000000000D+01 0.000000000000D+00 0.000000000000D+00
24 22  9 27  7 59 44.0 0.121055170894D-03-0.136424205266D-10 0.000000000000D+00
    0.300000000000D+01 0.429687500000D+02 0.477269880206D-08 0.898314462334D+00
    0.225566327572D-05 0.130755687132D-01 0.125933438540D-04 0.515368252754D+04
    0.201584000000D+06-0.173225998878D-06-0.287194769270D+01 0.689178705216D-07
    0.934653670728D+00 0.125250000000D+03 0.840574832470D+00-0.828177354054D-08
   -0.115361948145D-09 0.100000000000D+01 0.222900000000D+04 0.000000000000D+00
    0.200000000000D+01 0.000000000000D+00 0.279396772385D-08 0.300000000000D+01
    0.199393000000D+06 0.400000000000D+01 0.000000000000D+00 0.000000000000D+00
31 22  9 27  7 59 44.0-0.194802414626D-03-0.136424205266D-11 0.000000000000D+00
    0.110000000000D+02 0.545312500000D+02 0.430767943214D-08-0.583336363398D+00
    0.299140810967D-05 0.105618541129D-01 0.128224492073D-04 0.515359565735D+04
    0.201584000000D+06 0.188127160072D-06-0.276647334581D+01 0.856816768646D-07
    0.955241852286D+00 0.125312500000D+03 0.431953597630D+00-0.805604985253D-08
    0.152863510236D-09 0.100000000000D+01 0.222900000000D+04 0.000000000000D+00
    0.200000000000D+01 0.000000000000D+00-0.135041773319D-07 0.110000000000D+02
    0.199296000000D+06 0.400000000000D+01 0.000000000000D+00 0.000000000000D+00
 1 22  9 27  8  0  0.0 0.276962760836D-03-0.636646291241D-11 0.000000000000D+00
    0.152000000000D+03-0.368750000000D+01 0.383337396113D-08 0.580392722064D+00
   -0.111758708954D-07 0.119973805267D-01 0.126399099827D-04 0.515366162109D+04
    0.201600000000D+06-0.596046447754D-07 0.366659024317D+00 0.108033418655D-06
    0.988898894008D+00 0.151812500000D+03 0.943159825455D+00-0.778568144774D-08
    0.796461747257D-10 0.100000000000D+01 0.222900000000D+04 0.000000000000D+00
    0.282842707634D+01 0.000000000000D+00 0.512227416039D-08 0.152000000000D+03
    0.194449000000D+06 0.400000000000D+01 0.000000000000D+00 0.000000000000D+00
 2 22  9 27  8  0  0.0-0.644583255053D-03 0.136424205266D-11 0.000000000000D+00
    0.610000000000D+02-0.131250000000D+01 0.437268213976D-08 0.765510315835D-01
   -0.100582838059D-06 0.199936126592D-01 0.127293169498D-04 0.515489659309D+04
    0.201600000000D+06-0.242143869400D-06 0.272854829910D+00-0.115483999252D-06
    0.966848739417D+00 0.144312500000D+03-0.139290329252D+01-0.822605693400D-08
    0.867893294097D-10 0.100000000000D+01 0.222900000000D+04 0.000000000000D+00
    0.200000000000D+01 0.000000000000D+00-0.172294676304D-07 0.610000000000D+02
    0.194418000000D+06 0.400000000000D+01 0.000000000000D+00 0.000000000000D+00
 3 22  9 27  8  0  0.0-0.357212964445D-03-0.522959453519D-11 0.000000000000D+00
    0.460000000000D+02 0.469062500000D+02 0.468019494891D-08-0.523323165733D+00
    0.241212546825D-05 0.450590357650D-02 0.522285699844D-05 0.515353922653D+04
    0.201600000000D+06-0.391155481338D-07 0.139936240938D+01 0.372529029846D-07
    0.975091601073D+00 0.284968750000D+03 0.106441659048D+01-0.829177395710D-08
    0.265011038773D-09 0.100000000000D+01 0.222900000000D+04 0.000000000000D+00
    0.400000000000D+01 0.000000000000D+00 0.186264514923D-08 0.460000000000D+02
    0.197351000000D+06 0.400000000000D+01 0.000000000000D+00 0.000000000000D+00
 4 22  9 27  8  0  0.0-0.112548936158D-03 0.579802872380D-11 0.000000000000D+00
    0.122000000000D+03-0.727500000000D+02 0.462162108050D-08 0.249030691263D+01
   -0.377558171749D-05 0.202810543124D-02 0.736117362976D-05 0.515374860763D+04
    0.201600000000D+06 0.167638063431D-07 0.248122108100D+01-0.260770320892D-07
    0.961937277234D+00 0.240281250000D+03-0.310041878768D+01-0.817284043161D-08
   -0.611096883210D-09 0.100000000000D+01 0.222900000000D+04 0.000000000000D+00
    0.200000000000D+01 0.000000000000D+00-0.465661287308D-08 0.634000000000D+03
    0.196422000000D+06 0.400000000000D+01 0.000000000000D+00 0.000000000000D+00
 5 22  9 27  8  0  0.0-0.982121564448D-04-0.147792889038D-11 0.000000000000D+00
    0.159000000000D+03 0.545937500000D+02 0.491520473801D-08 0.309273708677D+01
    0.282190740108D-05 0.609112076927D-02 0.451318919659D-05 0.515378369141D+04
    0.201600000000D+06 0.819563865662D-07 0.135598934311D+01-0.484287738800D-07
    0.962130206871D+00 0.292781250000D+03 0.111776231517D+01-0.830713173967D-08
    0.279297348141D-09 0.100000000000D+01 0.222900000000D+04 0.000000000000D+00
    0.280000000000D+01 0.000000000000D+00-0.111758708954D-07 0.159000000000D+03
    0.194568000000D+06 0.400000000000D+01 0.000000000000D+00 0.000000000000D+00
